HIMAWARI-8              
1 40267U 14060A   24024.83687881 -.00000275  00000+0  00000+0 0  9994
2 40267   0.0536 231.2415 0001090  78.6391 255.6671  1.00271746 34093
